{"type": "FeatureCollection", "features": [ {"type": "Feature", "properties": {"norad_id": 31553, "name": "FENGYUN 1C DEB", "group": "fengyun-1c-debris", "lat": 69.31027934868212, "lon": 32.16711907604311, "alt_km": 763.8873071074986, "timestamp": "2025-12-27T17:24:57.688447+00:00", "meta": {"OBJECT_NAME": "FENGYUN 1C DEB", "OBJECT_ID": "1999-025BYU", "EPOCH": "2025-12-27T10:26:23.143776", "MEAN_MOTION": 14.30280331, "ECCENTRICITY": 0.0028758, "INCLINATION": 99.0042, "RA_OF_ASC_NODE": 56.6915, "ARG_OF_PERICENTER": 59.6697, "MEAN_ANOMALY": 315.7315, "EPHEMERIS_TYPE": 0, "CLASSIFICATION_TYPE": "U", "NORAD_CAT_ID": 31553, "ELEMENT_SET_NO": 999, "REV_AT_EPOCH": 96120, "BSTAR": 0.001825, "MEAN_MOTION_DOT": 4.711e-05, "MEAN_MOTION_DDOT": 0}, "tle": {"line1": "1 31553U 99025BYU 25361.43499009  .00004711  00000+0  18250-2 0  9997", "line2": "2 31553  99.0042  56.6915 0028758  59.6697 315.7315 14.30280331961205"}}, "geometry": {"type": "Point", "coordinates": [32.16711907604311, 69.31027934868212]}}, {"type": "Feature", "properties": {"norad_id": 31555, "name": "FENGYUN 1C DEB", "group": "fengyun-1c-debris", "lat": -52.614053297116, "lon": 124.80996717167334, "alt_km": 733.5113241812742, "timestamp": "2025-12-27T17:24:57.688458+00:00", "meta": {"OBJECT_NAME": "FENGYUN 1C DEB", "OBJECT_ID": "1999-025BYW", "EPOCH": "2025-12-25T02:50:01.575456", "MEAN_MOTION": 14.44351269, "ECCENTRICITY": 0.01548151, "INCLINATION": 99.1054, "RA_OF_ASC_NODE": 314.1332, "ARG_OF_PERICENTER": 159.4816, "MEAN_ANOMALY": 201.2683, "EPHEMERIS_TYPE": 0, "CLASSIFICATION_TYPE": "U", "NORAD_CAT_ID": 31555, "ELEMENT_SET_NO": 999, "REV_AT_EPOCH": 96742, "BSTAR": 0.0011907375, "MEAN_MOTION_DOT": 4.693e-05, "MEAN_MOTION_DDOT": 0}, "tle": {"line1": "1 31555U 99025BYW 25359.11807379  .00004693  00000+0  11907-2 0  9995", "line2": "2 31555  99.1054 314.1332 0154815 159.4816 201.2683 14.44351269967423"}}, "geometry": {"type": "Point", "coordinates": [124.80996717167334, -52.614053297116]}}, {"type": "Feature", "properties": {"norad_id": 31558, "name": "FENGYUN 1C DEB", "group": "fengyun-1c-debris", "lat": -31.934288211635852, "lon": 71.95473567891298, "alt_km": 618.723241541551, "timestamp": "2025-12-27T17:24:57.688468+00:00", "meta": {"OBJECT_NAME": "FENGYUN 1C DEB", "OBJECT_ID": "1999-025BYZ", "EPOCH": "2025-12-26T15:32:01.416768", "MEAN_MOTION": 14.38728295, "ECCENTRICITY": 0.0210923, "INCLINATION": 98.791, "RA_OF_ASC_NODE": 256.3843, "ARG_OF_PERICENTER": 220.8183, "MEAN_ANOMALY": 169.2126, "EPHEMERIS_TYPE": 0, "CLASSIFICATION_TYPE": "U", "NORAD_CAT_ID": 31558, "ELEMENT_SET_NO": 999, "REV_AT_EPOCH": 97635, "BSTAR": 0.00023219, "MEAN_MOTION_DOT": 8.67e-06, "MEAN_MOTION_DDOT": 0}, "tle": {"line1": "1 31558U 99025BYZ 25360.64723862  .00000867  00000+0  23219-3 0  9991", "line2": "2 31558  98.7910 256.3843 0210923 220.8183 169.2126 14.38728295976356"}}, "geometry": {"type": "Point", "coordinates": [71.95473567891298, -31.934288211635852]}}, {"type": "Feature", "properties": {"norad_id": 31559, "name": "FENGYUN 1C DEB", "group": "fengyun-1c-debris", "lat": -18.515824333999447, "lon": -40.04144772666376, "alt_km": 723.5398666570991, "timestamp": "2025-12-27T17:24:57.688478+00:00", "meta": {"OBJECT_NAME": "FENGYUN 1C DEB", "OBJECT_ID": "1999-025BZA", "EPOCH": "2025-12-25T19:42:23.581728", "MEAN_MOTION": 14.63742331, "ECCENTRICITY": 0.0054908, "INCLINATION": 98.8664, "RA_OF_ASC_NODE": 314.9143, "ARG_OF_PERICENTER": 152.5572, "MEAN_ANOMALY": 238.7033, "EPHEMERIS_TYPE": 0, "CLASSIFICATION_TYPE": "U", "NORAD_CAT_ID": 31559, "ELEMENT_SET_NO": 999, "REV_AT_EPOCH": 97748, "BSTAR": 0.001375962, "MEAN_MOTION_DOT": 7.277e-05, "MEAN_MOTION_DDOT": 0}, "tle": {"line1": "1 31559U 99025BZA 25359.82110627  .00007277  00000+0  13760-2 0  9990", "line2": "2 31559  98.8664 314.9143 0054908 152.5572 238.7033 14.63742331977489"}}, "geometry": {"type": "Point", "coordinates": [-40.04144772666376, -18.515824333999447]}}, {"type": "Feature", "properties": {"norad_id": 31560, "name": "FENGYUN 1C DEB", "group": "fengyun-1c-debris", "lat": 17.084011919427233, "lon": -139.90773123221211, "alt_km": 838.8170122682832, "timestamp": "2025-12-27T17:24:57.688488+00:00", "meta": {"OBJECT_NAME": "FENGYUN 1C DEB", "OBJECT_ID": "1999-025BZB", "EPOCH": "2025-12-23T19:42:37.813536", "MEAN_MOTION": 14.21225501, "ECCENTRICITY": 0.01197159, "INCLINATION": 98.5876, "RA_OF_ASC_NODE": 33.6331, "ARG_OF_PERICENTER": 276.0602, "MEAN_ANOMALY": 82.6945, "EPHEMERIS_TYPE": 0, "CLASSIFICATION_TYPE": "U", "NORAD_CAT_ID": 31560, "ELEMENT_SET_NO": 999, "REV_AT_EPOCH": 96776, "BSTAR": 5.5168508e-05, "MEAN_MOTION_DOT": 8.5e-07, "MEAN_MOTION_DDOT": 0}, "tle": {"line1": "1 31560U 99025BZB 25357.82127099  .00000085  00000+0  55169-4 0  9992", "line2": "2 31560  98.5876  33.6331 0119715 276.0602  82.6945 14.21225501967768"}}, "geometry": {"type": "Point", "coordinates": [-139.90773123221211, 17.084011919427233]}}, {"type": "Feature", "properties": {"norad_id": 31561, "name": "FENGYUN 1C DEB", "group": "fengyun-1c-debris", "lat": -75.16904133831285, "lon": 141.72215777673128, "alt_km": 910.2968198218587, "timestamp": "2025-12-27T17:24:57.688499+00:00", "meta": {"OBJECT_NAME": "FENGYUN 1C DEB", "OBJECT_ID": "1999-025BZC", "EPOCH": "2025-12-27T11:46:38.404128", "MEAN_MOTION": 14.02783653, "ECCENTRICITY": 0.0056972, "INCLINATION": 98.7166, "RA_OF_ASC_NODE": 356.9043, "ARG_OF_PERICENTER": 141.2342, "MEAN_ANOMALY": 10.2943, "EPHEMERIS_TYPE": 0, "CLASSIFICATION_TYPE": "U", "NORAD_CAT_ID": 31561, "ELEMENT_SET_NO": 999, "REV_AT_EPOCH": 95385, "BSTAR": 0.00023591, "MEAN_MOTION_DOT": 3.29e-06, "MEAN_MOTION_DDOT": 0}, "tle": {"line1": "1 31561U 99025BZC 25361.49072227  .00000329  00000+0  23591-3 0  9997", "line2": "2 31561  98.7166 356.9043 0056972 141.2342  10.2943 14.02783653953859"}}, "geometry": {"type": "Point", "coordinates": [141.72215777673128, -75.16904133831285]}}, {"type": "Feature", "properties": {"norad_id": 31562, "name": "FENGYUN 1C DEB", "group": "fengyun-1c-debris", "lat": 58.060515322686165, "lon": 139.3639232354842, "alt_km": 786.5051436402719, "timestamp": "2025-12-27T17:24:57.688509+00:00", "meta": {"OBJECT_NAME": "FENGYUN 1C DEB", "OBJECT_ID": "1999-025BZD", "EPOCH": "2025-12-22T08:55:24.100608", "MEAN_MOTION": 14.42118471, "ECCENTRICITY": 0.00571743, "INCLINATION": 99.2584, "RA_OF_ASC_NODE": 148.7288, "ARG_OF_PERICENTER": 254.8118, "MEAN_ANOMALY": 104.6741, "EPHEMERIS_TYPE": 0, "CLASSIFICATION_TYPE": "U", "NORAD_CAT_ID": 31562, "ELEMENT_SET_NO": 999, "REV_AT_EPOCH": 97129, "BSTAR": 0.00099763212, "MEAN_MOTION_DOT": 3.294e-05, "MEAN_MOTION_DDOT": 0}, "tle": {"line1": "1 31562U 99025BZD 25356.37180672  .00003294  00000+0  99763-3 0  9991", "line2": "2 31562  99.2584 148.7288 0057174 254.8118 104.6741 14.42118471971291"}}, "geometry": {"type": "Point", "coordinates": [139.3639232354842, 58.060515322686165]}}, {"type": "Feature", "properties": {"norad_id": 31563, "name": "FENGYUN 1C DEB", "group": "fengyun-1c-debris", "lat": -78.52125352605626, "lon": -74.38181978890807, "alt_km": 734.3558791235664, "timestamp": "2025-12-27T17:24:57.688519+00:00", "meta": {"OBJECT_NAME": "FENGYUN 1C DEB", "OBJECT_ID": "1999-025BZE", "EPOCH": "2025-12-27T09:39:50.908320", "MEAN_MOTION": 14.65387544, "ECCENTRICITY": 0.0113482, "INCLINATION": 98.953, "RA_OF_ASC_NODE": 156.1933, "ARG_OF_PERICENTER": 34.0421, "MEAN_ANOMALY": 326.7992, "EPHEMERIS_TYPE": 0, "CLASSIFICATION_TYPE": "U", "NORAD_CAT_ID": 31563, "ELEMENT_SET_NO": 999, "REV_AT_EPOCH": 98759, "BSTAR": 0.00055743, "MEAN_MOTION_DOT": 3.251e-05, "MEAN_MOTION_DDOT": 0}, "tle": {"line1": "1 31563U 99025BZE 25361.40267255  .00003251  00000+0  55743-3 0  9998", "line2": "2 31563  98.9530 156.1933 0113482  34.0421 326.7992 14.65387544987598"}}, "geometry": {"type": "Point", "coordinates": [-74.38181978890807, -78.52125352605626]}}, {"type": "Feature", "properties": {"norad_id": 31565, "name": "FENGYUN 1C DEB", "group": "fengyun-1c-debris", "lat": -51.90293006691148, "lon": 43.573843770805226, "alt_km": 780.7855555258475, "timestamp": "2025-12-27T17:24:57.688529+00:00", "meta": {"OBJECT_NAME": "FENGYUN 1C DEB", "OBJECT_ID": "1999-025BZG", "EPOCH": "2025-12-22T09:31:28.862112", "MEAN_MOTION": 14.39101299, "ECCENTRICITY": 0.00571858, "INCLINATION": 100.7166, "RA_OF_ASC_NODE": 230.9071, "ARG_OF_PERICENTER": 356.658, "MEAN_ANOMALY": 3.421, "EPHEMERIS_TYPE": 0, "CLASSIFICATION_TYPE": "U", "NORAD_CAT_ID": 31565, "ELEMENT_SET_NO": 999, "REV_AT_EPOCH": 64492, "BSTAR": 0.0037078807, "MEAN_MOTION_DOT": 0.00011648, "MEAN_MOTION_DDOT": 0}, "tle": {"line1": "1 31565U 99025BZG 25356.39686183  .00011648  00000+0  37079-2 0  9997", "line2": "2 31565 100.7166 230.9071 0057185 356.6580   3.4210 14.39101299644928"}}, "geometry": {"type": "Point", "coordinates": [43.573843770805226, -51.90293006691148]}}, {"type": "Feature", "properties": {"norad_id": 31566, "name": "FENGYUN 1C DEB", "group": "fengyun-1c-debris", "lat": -16.139906322608642, "lon": -121.3686096482059, "alt_km": 777.5099718606534, "timestamp": "2025-12-27T17:24:57.688540+00:00", "meta": {"OBJECT_NAME": "FENGYUN 1C DEB", "OBJECT_ID": "1999-025BZH", "EPOCH": "2025-12-27T10:25:11.938080", "MEAN_MOTION": 14.37567231, "ECCENTRICITY": 0.0023507, "INCLINATION": 98.948, "RA_OF_ASC_NODE": 60.9415, "ARG_OF_PERICENTER": 308.8778, "MEAN_ANOMALY": 179.8639, "EPHEMERIS_TYPE": 0, "CLASSIFICATION_TYPE": "U", "NORAD_CAT_ID": 31566, "ELEMENT_SET_NO": 999, "REV_AT_EPOCH": 96602, "BSTAR": 0.0022487, "MEAN_MOTION_DOT": 6.722e-05, "MEAN_MOTION_DDOT": 0}, "tle": {"line1": "1 31566U 99025BZH 25361.43416595  .00006722  00000+0  22487-2 0  9991", "line2": "2 31566  98.9480  60.9415 0023507 308.8778 179.8639 14.37567231966029"}}, "geometry": {"type": "Point", "coordinates": [-121.3686096482059, -16.139906322608642]}}]}